OBJECT_NAME,OBJECT_ID,EPOCH,MEAN_MOTION,ECCENTRICITY,INCLINATION,RA_OF_ASC_NODE,ARG_OF_PERICENTER,MEAN_ANOMALY,EPHEMERIS_TYPE,CLASSIFICATION_TYPE,NORAD_CAT_ID,ELEMENT_SET_NO,REV_AT_EPOCH,BSTAR,MEAN_MOTION_DOT,MEAN_MOTION_DDOT
ORBCOMM FM06,1997-084G,2026-06-19T08:55:07.406400,14.47567303,.00009603,45.0147,42.1961,339.4902,189.9949,0,U,25118,999,49470,.28741042E-3,.922E-5,0
ORBCOMM FM04,1998-007C,2026-06-19T16:38:55.423392,14.35745150,.0041435,107.9626,174.5781,320.4599,39.3522,0,U,25159,999,47695,.25306E-3,.606E-5,0
ORBCOMM FM19,1998-046C,2026-06-19T14:20:26.730240,14.39498899,.00045558,44.9928,232.1045,291.3057,220.8050,0,U,25415,999,45712,.19509463E-3,.471E-5,0
ORBCOMM FM20,1998-046D,2026-06-18T21:19:39.588960,14.38068084,.0002355,44.9933,243.4154,255.8652,104.1935,0,U,25416,999,45703,.16146E-3,.351E-5,0
ORBCOMM FM27,1998-053G,2026-06-19T03:08:59.150688,14.39143880,.00011973,45.0043,326.1186,200.3982,159.6819,0,U,25481,999,45051,.2422378E-3,.614E-5,0
ORBCOMM FM32,1999-065C,2026-06-19T00:40:47.173728,14.37131404,.00043843,45.0135,164.5248,45.3038,314.8166,0,U,25982,999,38735,.14665878E-3,.298E-5,0
ORBCOMM FM109,2014-040A,2026-06-19T00:22:58.545696,14.58846512,.00019355,47.0031,82.8397,251.0787,108.9889,0,U,40086,999,63461,.99899426E-4,.301E-5,0
ORBCOMM FM110,2015-081D,2026-06-19T20:14:25.484064,14.58883660,.0002482,47.0032,348.8841,92.0645,268.0525,0,U,41182,999,55801,.13345E-3,.46E-5,0
ORBCOMM FM118,2015-081E,2026-06-18T22:03:04.576608,14.58881067,.0002527,47.0047,353.5866,37.2659,322.8402,0,U,41183,999,55798,.44524E-3,.1935E-4,0
ORBCOMM FM112,2015-081F,2026-06-19T12:57:09.546912,14.58907115,.00038569,46.9988,259.1230,227.4401,132.6160,0,U,41184,999,55929,.11418492E-3,.369E-5,0
ORBCOMM FM113,2015-081G,2026-06-19T12:23:36.534912,14.58860259,.00023755,47.0005,259.6104,232.5233,127.5437,0,U,41185,999,55927,.80780567E-4,.211E-5,0
ORBCOMM FM108,2015-081J,2026-06-18T00:58:24.502368,14.58870752,.00029879,47.0030,178.1625,224.9174,135.1471,0,U,41187,999,56020,.90814462E-4,.258E-5,0
ORBCOMM FM117,2015-081K,2026-06-19T10:39:47.089728,14.58865978,.00035594,46.9990,170.1588,233.3238,126.7321,0,U,41188,999,56045,.61424387E-4,.119E-5,0
ORBCOMM FM116,2015-081L,2026-06-19T13:28:49.741248,14.58886171,.00005204,47.0017,259.3943,91.8831,268.2114,0,U,41189,999,55928,.11799295E-3,.387E-5,0
